{
    "links": {
        "self": "http://www.neowsapp.com/rest/v1/neo/3751823?api_key=iIulBulltgU6a56xZRHN4H3l9WmuAYTsLGpBGhQ2"
    },
    "id": "3751823",
    "neo_reference_id": "3751823",
    "name": "(2016 GV220)",
    "designation": "2016 GV220",
    "nasa_jpl_url": "http://ssd.jpl.nasa.gov/sbdb.cgi?sstr=3751823",
    "absolute_magnitude_h": 21.5,
    "estimated_diameter": {
        "kilometers": {
            "estimated_diameter_min": 0.1332155667,
            "estimated_diameter_max": 0.2978790628
        },
        "meters": {
            "estimated_diameter_min": 133.2155666981,
            "estimated_diameter_max": 297.8790627982
        },
        "miles": {
            "estimated_diameter_min": 0.0827762899,
            "estimated_diameter_max": 0.1850934111
        },
        "feet": {
            "estimated_diameter_min": 437.0589598459,
            "estimated_diameter_max": 977.2935443908
        }
    },
    "is_potentially_hazardous_asteroid": false,
    "close_approach_data": [
        {
            "close_approach_date": "2016-04-11",
            "close_approach_date_full": "2016-Apr-11 00:53",
            "epoch_date_close_approach": 1460335980000,
            "relative_velocity": {
                "kilometers_per_second": "21.7958830551",
                "kilometers_per_hour": "78465.1789984298",
                "miles_per_hour": "48755.2108059966"
            },
            "miss_distance": {
                "astronomical": "0.0870599552",
                "lunar": "33.8663225728",
                "kilometers": "13023983.860215424",
                "miles": "8092728.3059398912"
            },
            "orbiting_body": "Earth"
        }
    ],
    "orbital_data": {
        "orbit_id": "18",
        "orbit_determination_date": "2017-04-06 08:26:33",
        "first_observation_date": "2016-04-12",
        "last_observation_date": "2016-04-29",
        "data_arc_in_days": 17,
        "observations_used": 231,
        "orbit_uncertainty": "8",
        "minimum_orbit_intersection": ".0869428",
        "jupiter_tisserand_invariant": "4.306",
        "epoch_osculation": "2457493.5",
        "eccentricity": ".2681578471290009",
        "semi_major_axis": "1.472754878744529",
        "inclination": "41.02950647588547",
        "ascending_node_longitude": "201.6101634618022",
        "orbital_period": "652.8210234537202",
        "perihelion_distance": "1.077824101111663",
        "perihelion_argument": "341.6416883174638",
        "aphelion_distance": "1.867685656377394",
        "perihelion_time": "2457471.662901400758",
        "mean_anomaly": "12.04212979253789",
        "mean_motion": ".5514528286718406",
        "equinox": "J2000",
        "orbit_class": {
            "orbit_class_type": "AMO",
            "orbit_class_description": "Near-Earth asteroid orbits similar to that of 1221 Amor",
            "orbit_class_range": "1.017 AU < q (perihelion) < 1.3 AU"
        }
    },
    "is_sentry_object": false
}